0 DELTA 1 DEB
1 05443U 67114E   13283.16556784 -.00000054  00000-0 -58795-4 0  1276
2 05443 101.5452 353.3149 0062190 178.5327 209.5944 12.56686275105529
0 DELTA 1 DEB
1 05443U 67114E   13287.14644258 -.00000019  00000-0  14890-3 0  1280
2 05443 101.5447 357.2107 0062227 170.7649 219.3294 12.56685987106024
0 DELTA 1 DEB
1 05443U 67114E   13290.03260539 -.00000018  00000-0  15355-3 0  1295
2 05443 101.5440 000.0353 0062246 165.1724 316.4760 12.56686153106388
0 DELTA 1 DEB
1 05443U 67114E   13295.43401745 -.00000049  00000-0 -28192-4 0  1301
2 05443 101.5435 005.3202 0062307 154.6898 272.7575 12.56686682107067
